ONEWEB-0196             
1 48218U 21031J   25058.39430887 -.00000134  00000+0 -39584-3 0  9993
2 48218  87.9045  24.1050 0001953  81.0286 279.1064 13.14503583185852
ONEWEB-0183             
1 48219U 21031K   25058.44504975  .00000090  00000+0  20708-3 0  9997
2 48219  87.9043  24.1088 0001646  81.0436 279.0880 13.14505142185957
ONEWEB-0185             
1 48220U 21031L   25058.39509949 -.00000098  00000+0 -29861-3 0  9998
2 48220  87.9042  24.0888 0001735  74.6030 285.5292 13.14505109185875
ONEWEB-0192             
1 48222U 21031N   25058.42127343  .00000197  00000+0  49724-3 0  9996
2 48222  87.9043  24.1175 0001937  80.3189 279.8159 13.14502999185806
ONEWEB-0219             
1 48223U 21031P   25058.40065581 -.00000019  00000+0 -85505-4 0  9993
2 48223  87.9042  24.0947 0001821  76.7183 283.4150 13.14501928186003
ONEWEB-0202             
1 48224U 21031Q   25058.45774533 -.00000156  00000+0 -45655-3 0  9996
2 48224  87.9044  24.0992 0002449  68.3513 291.7878 13.14501602185992
ONEWEB-0204             
1 48225U 21031R   25058.41570210  .00000193  00000+0  48707-3 0  9999
2 48225  87.9041  24.1200 0001526  87.6400 272.4905 13.14507256185883
